$$SOE
2459580.500000000, A.D. 2022-Jan-01 00:00:00.0000, 1.490837305547340E+08, 5.474326418205153E+06, 2.118563413580458E+07,
2459587.500000000, A.D. 2022-Jan-08 00:00:00.0000, 1.528178506093870E+08, 2.227917113170929E+07, 1.832009738675780E+07,
2459594.500000000, A.D. 2022-Jan-15 00:00:00.0000, 1.545797015225169E+08, 3.879962487947518E+07, 1.521746202337644E+07,
2459601.500000000, A.D. 2022-Jan-22 00:00:00.0000, 1.545127039690142E+08, 5.486363163579421E+07, 1.193423967042288E+07,
2459608.500000000, A.D. 2022-Jan-29 00:00:00.0000, 1.527571237598632E+08, 7.033023113222414E+07, 8.520134851648889E+06,
2459615.500000000, A.D. 2022-Feb-05 00:00:00.0000, 1.494478522683831E+08, 8.508333030789112E+07, 5.018982362053197E+06,
2459622.500000000, A.D. 2022-Feb-12 00:00:00.0000, 1.447134029524191E+08, 9.902660582136366E+07, 1.469635251404136E+06,
2459629.500000000, A.D. 2022-Feb-19 00:00:00.0000, 1.386756774139323E+08, 1.120793889694183E+08, -2.093232079216607E+06,
2459636.500000000, A.D. 2022-Feb-26 00:00:00.0000, 1.314502064297717E+08, 1.241733679276558E+08, -5.638415974291161E+06,
2459643.500000000, A.D. 2022-Mar-05 00:00:00.0000, 1.231466771925504E+08, 1.352499546779287E+08, -9.137568165273905E+06,
2459650.500000000, A.D. 2022-Mar-12 00:00:00.0000, 1.138696281918881E+08, 1.452581863613541E+08, -1.256466422665295E+07,
2459657.500000000, A.D. 2022-Mar-19 00:00:00.0000, 1.037192395753636E+08, 1.541530543600447E+08, -1.589554491264445E+07,
2459664.500000000, A.D. 2022-Mar-26 00:00:00.0000, 9.279217751467946E+07, 1.618941761204816E+08, -1.910751927102593E+07,
2459671.500000000, A.D. 2022-Apr-02 00:00:00.0000, 8.118247145126665E+07, 1.684447435755304E+08, -2.217901925019135E+07,
2459678.500000000, A.D. 2022-Apr-09 00:00:00.0000, 6.898241683239195E+07, 1.737706980835667E+08, -2.508929676252460E+07,
2459685.500000000, A.D. 2022-Apr-16 00:00:00.0000, 5.628350525700423E+07, 1.778400960035112E+08, -2.781815550646666E+07,
2459692.500000000, A.D. 2022-Apr-23 00:00:00.0000, 4.317738889600500E+07, 1.806226411024026E+08, -3.034571108165675E+07,
2459699.500000000, A.D. 2022-Apr-30 00:00:00.0000, 2.975689027374139E+07, 1.820893670049742E+08, -3.265217449867693E+07,
2459706.500000000, A.D. 2022-May-07 00:00:00.0000, 1.611707726149612E+07, 1.822124633463129E+08, -3.471765607851800E+07,
2459713.500000000, A.D. 2022-May-14 00:00:00.0000, 2.356424968395931E+06, 1.809652546614328E+08, -3.652198784402782E+07,
2459720.500000000, A.D. 2022-May-21 00:00:00.0000, -1.142191434042084E+07, 1.783223500407401E+08, -3.804456422131135E+07,
2459727.500000000, A.D. 2022-May-28 00:00:00.0000, -2.510870833006367E+07, 1.742599934518946E+08, -3.926420355640931E+07,
2459734.500000000, A.D. 2022-Jun-04 00:00:00.0000, -3.858708165379279E+07, 1.687566622026555E+08, -4.015903623083478E+07,
2459741.500000000, A.D. 2022-Jun-11 00:00:00.0000, -5.173076683080449E+07, 1.617939830897682E+08, -4.070642966959864E+07,
2459748.500000000, A.D. 2022-Jun-18 00:00:00.0000, -6.440214756475440E+07, 1.533580642636914E+08, -4.088296702492866E+07,
2459755.500000000, A.D. 2022-Jun-25 00:00:00.0000, -7.645008497727680E+07, 1.434413781851574E+08, -4.066450571264398E+07,
2459762.500000000, A.D. 2022-Jul-02 00:00:00.0000, -8.770754169438019E+07, 1.320453796373000E+08, -4.002635557189845E+07,
2459769.500000000, A.D. 2022-Jul-09 00:00:00.0000, -9.798906495800583E+07, 1.191841045782760E+08, -3.894363592230669E+07,
2459776.500000000, A.D. 2022-Jul-16 00:00:00.0000, -1.070882736383446E+08, 1.048890705221785E+08, -3.739189820618924E+07,
2459783.500000000, A.D. 2022-Jul-23 00:00:00.0000, -1.147756392551366E+08, 8.921587804357332E+07, -3.534813849199642E+07,
2459790.500000000, A.D. 2022-Jul-30 00:00:00.0000, -1.207970853113768E+08, 7.225297544119699E+07, -3.279237345278058E+07,
2459797.500000000, A.D. 2022-Aug-06 00:00:00.0000, -1.248742991889611E+08, 5.413305668458533E+07, -2.971001004027142E+07,
2459804.500000000, A.D. 2022-Aug-13 00:00:00.0000, -1.267082100355872E+08, 3.504740845774795E+07, -2.609528952169047E+07,
2459811.500000000, A.D. 2022-Aug-20 00:00:00.0000, -1.259878310508264E+08, 1.526302139097287E+07, -2.195609690240622E+07,
2459818.500000000, A.D. 2022-Aug-27 00:00:00.0000, -1.224074798437165E+08, -4.858845027878029E+06, -1.732031978010188E+07,
2459825.500000000, A.D. 2022-Sep-03 00:00:00.0000, -1.156958670855622E+08, -2.484605072744791E+07, -1.224358457571638E+07,
2459832.500000000, A.D. 2022-Sep-10 00:00:00.0000, -1.056597381398458E+08, -4.410753157585964E+07, -6.817423789637348E+06,
2459839.500000000, A.D. 2022-Sep-17 00:00:00.0000, -9.224114260261565E+07, -6.194403737795389E+07, -1.175654760715414E+06,
2459846.500000000, A.D. 2022-Sep-24 00:00:00.0000, -7.557967314651860E+07, -7.758930761720316E+07, 4.504700469034150E+06,
2459853.500000000, A.D. 2022-Oct-01 00:00:00.0000, -5.606038535771764E+07, -9.028814684695072E+07, 1.001215616577299E+07,
2459860.500000000, A.D. 2022-Oct-08 00:00:00.0000, -3.432121357151487E+07, -9.940276206779294E+07, 1.512132170293207E+07,
2459867.500000000, A.D. 2022-Oct-15 00:00:00.0000, -1.120088529086650E+07, -1.045184360985429E+08, 1.962222623774861E+07,
2459874.500000000, A.D. 2022-Oct-22 00:00:00.0000, 1.236701894792141E+07, -1.055094265760394E+08, 2.334959506317473E+07,
2459881.500000000, A.D. 2022-Oct-29 00:00:00.0000, 3.548021192340631E+07, -1.025394717885896E+08, 2.620182255111530E+07,
2459888.500000000, A.D. 2022-Nov-05 00:00:00.0000, 5.737143686958817E+07, -9.600205968335196E+07, 2.814431796117714E+07,
2459895.500000000, A.D. 2022-Nov-12 00:00:00.0000, 7.746367914119397E+07, -8.643033671779220E+07, 2.919940629840817E+07,
2459902.500000000, A.D. 2022-Nov-19 00:00:00.0000, 9.537669599471980E+07, -7.440966130887993E+07, 2.942948611486338E+07,
2459909.500000000, A.D. 2022-Nov-26 00:00:00.0000, 1.109013643821461E+08, -6.051254281595512E+07, 2.891993485227738E+07,
2459916.500000000, A.D. 2022-Dec-03 00:00:00.0000, 1.239608022031629E+08, -4.526023808875103E+07, 2.776546767445762E+07,
2459923.500000000, A.D. 2022-Dec-10 00:00:00.0000, 1.345715287686765E+08, -2.910606466280013E+07, 2.606092735580821E+07,
2459930.500000000, A.D. 2022-Dec-17 00:00:00.0000, 1.428110659304001E+08, -1.243289551336809E+07, 2.389592737421838E+07,
2459937.500000000, A.D. 2022-Dec-24 00:00:00.0000, 1.487936085920143E+08, 4.441657634624159E+06, 2.135226872513494E+07,
2459944.500000000, A.D. 2022-Dec-31 00:00:00.0000, 1.526530031568505E+08, 2.125678344989801E+07, 1.850311757931881E+07,
2459951.500000000, A.D. 2023-Jan-07 00:00:00.0000, 1.545314697904877E+08, 3.779929470875002E+07, 1.541318794306850E+07,
2459958.500000000, A.D. 2023-Jan-14 00:00:00.0000, 1.545724930006774E+08, 5.389502321242639E+07, 1.213943226352504E+07,
2459965.500000000, A.D. 2023-Jan-21 00:00:00.0000, 1.529165895923613E+08, 6.940130764919478E+07, 8.731939782153092E+06,
2459972.500000000, A.D. 2023-Jan-28 00:00:00.0000, 1.496989984925112E+08, 8.420069290488990E+07, 5.234874554161552E+06,
2459979.500000000, A.D. 2023-Feb-04 00:00:00.0000, 1.450486186828836E+08, 9.819577013316539E+07, 1.687367714505300E+06,
2459986.500000000, A.D. 2023-Feb-11 00:00:00.0000, 1.390877374317984E+08, 1.113050086778820E+08, -1.875673721195564E+06,
2459993.500000000, A.D. 2023-Feb-18 00:00:00.0000, 1.319322481078209E+08, 1.234594146743942E+08, -5.422853111007951E+06,
2460000.500000000, A.D. 2023-Feb-25 00:00:00.0000, 1.236921640691576E+08, 1.345998629210586E+08, -8.925663542766221E+06,
2460007.500000000, A.D. 2023-Mar-04 00:00:00.0000, 1.144723064229770E+08, 1.446749697547364E+08, -1.235795193348318E+07,
2460014.500000000, A.D. 2023-Mar-11 00:00:00.0000, 1.043730903203419E+08, 1.536393982885881E+08, -1.569545678127091E+07,
2460021.500000000, A.D. 2023-Mar-18 00:00:00.0000, 9.349136620437114E+07, 1.614525103899370E+08, -1.891540802817959E+07,
2460028.500000000, A.D. 2023-Mar-25 00:00:00.0000, 8.192129450074817E+07, 1.680772991672347E+08, -2.199617867337254E+07,
2460035.500000000, A.D. 2023-Apr-01 00:00:00.0000, 6.975524651851653E+07, 1.734795515055391E+08, -2.491697927807318E+07,
2460042.500000000, A.D. 2023-Apr-08 00:00:00.0000, 5.708473221321903E+07, 1.776272042172087E+08, -2.765758760940006E+07,
2460049.500000000, A.D. 2023-Apr-15 00:00:00.0000, 4.400136007615683E+07, 1.804898667857773E+08, -3.019810691112204E+07,
2460056.500000000, A.D. 2023-Apr-22 00:00:00.0000, 3.059784342345241E+07, 1.820384925559229E+08, -3.251874817377183E+07,
2460063.500000000, A.D. 2023-Apr-29 00:00:00.0000, 1.696907248925249E+07, 1.822451957437080E+08, -3.459963296988411E+07,
2460070.500000000, A.D. 2023-May-06 00:00:00.0000, 3.213270641653095E+06, 1.810832212630341E+08, -3.642061461007005E+07,
2460077.500000000, A.D. 2023-May-13 00:00:00.0000, -1.056674329400183E+07, 1.785270830316792E+08, -3.796111752424200E+07,
2460084.500000000, A.D. 2023-May-20 00:00:00.0000, -2.426216100194854E+07, 1.745529002505562E+08, -3.919999723872347E+07,
2460091.500000000, A.D. 2023-May-27 00:00:00.0000, -3.775663197091640E+07, 1.691389782687869E+08, -4.011542646976612E+07,
2460098.500000000, A.D. 2023-Jun-03 00:00:00.0000, -5.092452586332653E+07, 1.622667021147229E+08, -4.068481728717244E+07,
2460105.500000000, A.D. 2023-Jun-10 00:00:00.0000, -6.362898807339705E+07, 1.539218387500647E+08, -4.088479565957072E+07,
2460112.500000000, A.D. 2023-Jun-17 00:00:00.0000, -7.571977777633630E+07, 1.440963808632110E+08, -4.069125388562960E+07,
2460119.500000000, A.D. 2023-Jun-24 00:00:00.0000, -8.703090108668664E+07, 1.327911130479361E+08, -4.007951971175881E+07,
2460126.500000000, A.D. 2023-Jul-01 00:00:00.0000, -9.737809678705025E+07, 1.200191428186687E+08, -3.902469995844741E+07,
2460133.500000000, A.D. 2023-Jul-08 00:00:00.0000, -1.065563144851325E+08, 1.058107123676302E+08, -3.750228331652380E+07,
2460140.500000000, A.D. 2023-Jul-15 00:00:00.0000, -1.143374632651119E+08, 9.021968349473295E+07, -3.548912442924989E+07,
2460147.500000000, A.D. 2023-Jul-22 00:00:00.0000, -1.204689336228882E+08, 7.333215782086042E+07, -3.296497978395922E+07,
$$EOE